STARLINK-37631          
1 69369U 26123S   26163.25003472 -.01153345  41831-3 -25484-2 0  9997
2 69369  53.1573 266.2786 0000911  72.6160 108.9252 15.97359428  2405
STARLINK-37673          
1 69370U 26123T   26163.25003472 -.02049116  12057-2 -45453-2 0  9995
2 69370  53.1571 266.2588 0000872  63.0351 127.9922 15.97423572  2404
STARLINK-37645          
1 69371U 26123U   26163.25003472 -.02007914  11481-2 -46982-2 0  9994
2 69371  53.1573 266.2533 0001007  71.8588 121.7003 15.96448417  2403
STARLINK-37688          
1 69372U 26123V   26163.25003472 -.01862252  98727-3 -45837-2 0  9995
2 69372  53.1571 266.1995 0000943  71.6405 147.6631 15.95498901  2414
STARLINK-37685          
1 69373U 26123W   26163.25003472 -.01867809  99234-3 -46077-2 0  9990
2 69373  53.1569 266.1907 0000855  78.1087 145.4520 15.95458064  2414
STARLINK-37632          
1 69374U 26123X   26163.25003472 -.01852502  97643-3 -45895-2 0  9994
2 69374  53.1567 266.1837 0001047  80.6971 146.2445 15.95376484  2363
STARLINK-37454          
1 69375U 26123Y   26163.25003472 -.01829628  95422-3 -45305-2 0  9997
2 69375  53.1567 266.1685 0000942  70.0474 164.0275 15.95383173  2507
STARLINK-37485          
1 69376U 26123Z   26163.25003472 -.01849088  97350-3 -45709-2 0  9990
2 69376  53.1566 266.1598 0000918  64.5846 173.6415 15.95417408  2505
STARLINK-37439          
1 69377U 26123AA  26163.25003472 -.01832216  97466-3 -41225-2 0  9993
2 69377  53.1560 266.1224 0000970  74.2976 181.8795 15.97139069  2368
STARLINK-37376          
1 69378U 26123AB  26163.25003472 -.01816692  94966-3 -43070-2 0  9996
2 69378  53.1562 266.1284 0000900  71.9493 181.2197 15.96183375  2502
STARLINK-37383          
1 69379U 26123AC  26163.25003472 -.01840826  98240-3 -41595-2 0  9992
2 69379  53.1555 266.0768 0000802  72.2577 205.4639 15.97063616  2505
STARLINK-37411          
1 69380U 26123AD  26163.25003472 -.01835499  96886-3 -43326-2 0  9992
2 69380  53.1561 266.1138 0000880  69.9326 189.9788 15.96266398  2509
STARLINK-37427          
1 69381U 26123AE  26163.25003472 -.01780552  92244-3 -40450-2 0  9991
2 69381  53.1559 266.0904 0000845  70.0393 201.2203 15.96957841  2415
QIANFAN-165             
1 69382U 26124A   26162.96885512 -.01989801  00000+0 -99081+0 0  9997
2 69382  88.9975   2.6328 0002735 162.4471 197.6815 14.21065543  1075
QIANFAN-166             
1 69383U 26124B   26163.03767595 -.01981081  00000+0 -94674+0 0  9992
2 69383  88.9977   2.6247 0006417 134.9205 225.2509 14.23215409  1087
QIANFAN-167             
1 69384U 26124C   26162.82673483 -.01862668  00000+0 -91618+0 0  9995
2 69384  88.9978   2.6486 0002322 115.3974 244.7457 14.21458059  1054
QIANFAN-168             
1 69385U 26124D   26162.82624683 -.01722361  00000+0 -85756+0 0  9995
2 69385  88.9981   2.6491 0009042 173.9350 186.1951 14.21125199  1053
QIANFAN-169             
1 69386U 26124E   26162.96658779 -.01714272  00000+0 -85679+0 0  9990
2 69386  88.9980   2.6329 0000368 317.0689  43.0473 14.20924892  1079
QIANFAN-170             
1 69387U 26124F   26162.96670103 -.01722171  00000+0 -86907+0 0  9998
2 69387  88.9981   2.6326 0001028   8.9653 351.1555 14.20431376  1073
QIANFAN-171             
1 69388U 26124G   26163.03676114 -.01934939  00000+0 -94559+0 0  9995
2 69388  88.9983   2.6251 0002819 139.5176 220.6226 14.21948149  1081
QIANFAN-172             
1 69389U 26124H   26162.96632652 -.01652435  00000+0 -82880+0 0  9998
2 69389  88.9980   2.6328 0005134 210.7498 149.3392 14.20581824  1078
QIANFAN-173             
1 69390U 26124J   26162.82536565 -.01677010  00000+0 -82800+0 0  9999
2 69390  88.9981   2.6490 0001677  84.5981 275.5401 14.21482916  1057
QIANFAN-174             
1 69391U 26124K   26163.17779561  .00000106  00000+0  38093-4 0  9997
2 69391  88.9985   2.6087 0002250 161.9314 198.1960 14.26477446  1105
QIANFAN-175             
1 69392U 26124L   26162.96693602 -.02061810  00000+0 -98041+0 0  9992
2 69392  88.9979   2.6328 0006344 104.9794 255.2100 14.23645484  1077
QIANFAN-176             
1 69393U 26124M   26162.96547031 -.01673763  00000+0 -82560+0 0  9991
2 69393  88.9981   2.6329 0009798 174.5661 185.5638 14.21501052  1075
QIANFAN-177             
1 69394U 26124N   26163.24771607  .00000134  00000+0  49345-4 0  9994
2 69394  88.9985   2.6005 0001777 165.1333 194.9913 14.26675102  1110
QIANFAN-178             
1 69395U 26124P   26162.89520266 -.01599830  00000+0 -78962+0 0  9999
2 69395  88.9980   2.6407 0002902 223.0487 137.0477 14.21314171  1065
QIANFAN-179             
1 69396U 26124Q   26163.10740200  .00000126  00000+0  45920-4 0  9992
2 69396  88.9985   2.6165 0001713 165.8579 194.2663 14.26682169  1091
QIANFAN-180             
1 69397U 26124R   26163.03704600 -.02078447  00000+0 -98561+0 0  9998
2 69397  88.9986   2.6306 0007299  88.5369 271.6659 14.23821043  1080
