OBJECT_NAME,OBJECT_ID,EPOCH,MEAN_MOTION,ECCENTRICITY,INCLINATION,RA_OF_ASC_NODE,ARG_OF_PERICENTER,MEAN_ANOMALY,EPHEMERIS_TYPE,CLASSIFICATION_TYPE,NORAD_CAT_ID,ELEMENT_SET_NO,REV_AT_EPOCH,BSTAR,MEAN_MOTION_DOT,MEAN_MOTION_DDOT
STARLINK-37631,2026-123S,2026-06-12T06:00:02.999808,15.97359428,.00009118,53.1573,266.2786,72.6160,108.9252,0,U,69369,999,240,-.25483879E-2,-.1153345E-1,.41830766E-3
STARLINK-37673,2026-123T,2026-06-12T06:00:02.999808,15.97423572,.00008729,53.1571,266.2588,63.0351,127.9922,0,U,69370,999,240,-.45453283E-2,-.2049116E-1,.12057202E-2
STARLINK-37645,2026-123U,2026-06-12T06:00:02.999808,15.96448417,.00010077,53.1573,266.2533,71.8588,121.7003,0,U,69371,999,240,-.46981655E-2,-.2007914E-1,.1148098E-2
STARLINK-37688,2026-123V,2026-06-12T06:00:02.999808,15.95498901,.00009439,53.1571,266.1995,71.6405,147.6631,0,U,69372,999,241,-.45836612E-2,-.1862252E-1,.98727265E-3
STARLINK-37685,2026-123W,2026-06-12T06:00:02.999808,15.95458064,.00008555,53.1569,266.1907,78.1087,145.4520,0,U,69373,999,241,-.46077164E-2,-.1867809E-1,.99233557E-3
STARLINK-37632,2026-123X,2026-06-12T06:00:02.999808,15.95376484,.00010475,53.1567,266.1837,80.6971,146.2445,0,U,69374,999,236,-.45895314E-2,-.1852502E-1,.97643167E-3
STARLINK-37454,2026-123Y,2026-06-12T06:00:02.999808,15.95383173,.00009421,53.1567,266.1685,70.0474,164.0275,0,U,69375,999,250,-.45305126E-2,-.1829628E-1,.95421793E-3
STARLINK-37485,2026-123Z,2026-06-12T06:00:02.999808,15.95417408,.00009181,53.1566,266.1598,64.5846,173.6415,0,U,69376,999,250,-.45709124E-2,-.1849088E-1,.97350492E-3
STARLINK-37439,2026-123AA,2026-06-12T06:00:02.999808,15.97139069,.00009704,53.1560,266.1224,74.2976,181.8795,0,U,69377,999,236,-.4122534E-2,-.1832216E-1,.97465554E-3
STARLINK-37376,2026-123AB,2026-06-12T06:00:02.999808,15.96183375,.00009001,53.1562,266.1284,71.9493,181.2197,0,U,69378,999,250,-.43070157E-2,-.1816692E-1,.94966258E-3
STARLINK-37383,2026-123AC,2026-06-12T06:00:02.999808,15.97063616,.00008026,53.1555,266.0768,72.2577,205.4639,0,U,69379,999,250,-.4159497E-2,-.1840826E-1,.98240064E-3
STARLINK-37411,2026-123AD,2026-06-12T06:00:02.999808,15.96266398,.00008807,53.1561,266.1138,69.9326,189.9788,0,U,69380,999,250,-.43325615E-2,-.1835499E-1,.96885871E-3
STARLINK-37427,2026-123AE,2026-06-12T06:00:02.999808,15.96957841,.00008459,53.1559,266.0904,70.0393,201.2203,0,U,69381,999,241,-.40449594E-2,-.1780552E-1,.92243526E-3
QIANFAN-165,2026-124A,2026-06-11T23:15:09.082368,14.21065543,.00027357,88.9975,2.6328,162.4471,197.6815,0,U,69382,999,107,-.99080767E+0,-.1989801E-1,0
QIANFAN-166,2026-124B,2026-06-12T00:54:15.202080,14.23215409,.00064171,88.9977,2.6247,134.9205,225.2509,0,U,69383,999,108,-.94674458E+0,-.1981081E-1,0
QIANFAN-167,2026-124C,2026-06-11T19:50:29.889312,14.21458059,.00023221,88.9978,2.6486,115.3974,244.7457,0,U,69384,999,105,-.9161779E+0,-.1862668E-1,0
QIANFAN-168,2026-124D,2026-06-11T19:49:47.726112,14.21125199,.00090424,88.9981,2.6491,173.9350,186.1951,0,U,69385,999,105,-.85756117E+0,-.1722361E-1,0
QIANFAN-169,2026-124E,2026-06-11T23:11:53.185056,14.20924892,.00003681,88.9980,2.6329,317.0689,43.0473,0,U,69386,999,107,-.85679487E+0,-.1714272E-1,0
QIANFAN-170,2026-124F,2026-06-11T23:12:02.968992,14.20431376,.00010284,88.9981,2.6326,8.9653,351.1555,0,U,69387,999,107,-.86906878E+0,-.1722171E-1,0
QIANFAN-171,2026-124G,2026-06-12T00:52:56.162496,14.21948149,.00028198,88.9983,2.6251,139.5176,220.6226,0,U,69388,999,108,-.94558799E+0,-.1934939E-1,0
QIANFAN-172,2026-124H,2026-06-11T23:11:30.611328,14.20581824,.00051348,88.9980,2.6328,210.7498,149.3392,0,U,69389,999,107,-.82879503E+0,-.1652435E-1,0
QIANFAN-173,2026-124J,2026-06-11T19:48:31.592160,14.21482916,.00016771,88.9981,2.6490,84.5981,275.5401,0,U,69390,999,105,-.82799943E+0,-.167701E-1,0
QIANFAN-174,2026-124K,2026-06-12T04:16:01.540704,14.26477446,.00022502,88.9985,2.6087,161.9314,198.1960,0,U,69391,999,110,.38093012E-4,.106E-5,0
QIANFAN-175,2026-124L,2026-06-11T23:12:23.272128,14.23645484,.0006344,88.9979,2.6328,104.9794,255.2100,0,U,69392,999,107,-.98040644E+0,-.206181E-1,0
QIANFAN-176,2026-124M,2026-06-11T23:10:16.634784,14.21501052,.00097984,88.9981,2.6329,174.5661,185.5638,0,U,69393,999,107,-.82560141E+0,-.1673763E-1,0
QIANFAN-177,2026-124N,2026-06-12T05:56:42.668448,14.26675102,.00017774,88.9985,2.6005,165.1333,194.9913,0,U,69394,999,111,.49344567E-4,.134E-5,0
QIANFAN-178,2026-124P,2026-06-11T21:29:05.509824,14.21314171,.00029026,88.9980,2.6407,223.0487,137.0477,0,U,69395,999,106,-.78961514E+0,-.159983E-1,0
QIANFAN-179,2026-124Q,2026-06-12T02:34:39.532800,14.26682169,.0001713,88.9985,2.6165,165.8579,194.2663,0,U,69396,999,109,.4592049E-4,.126E-5,0
QIANFAN-180,2026-124R,2026-06-12T00:53:20.774400,14.23821043,.00072993,88.9986,2.6306,88.5369,271.6659,0,U,69397,999,108,-.98560579E+0,-.2078447E-1,0
